{
  "norad_id": 60919,
  "name": "STARLINK-32367",
  "history": [
    {
      "epoch": "2026-03-28T18:54:41.967072",
      "apogee_km": 475.75320685480074,
      "perigee_km": 474.6378955154214,
      "latitude_deg": -43.119718506113664,
      "longitude_deg": -12.453369920141995,
      "semi_major_axis_km": 6853.332551185111,
      "eccentricity": 8.137e-05,
      "inclination_deg": 53.1597,
      "raan_deg": 194.8036,
      "arg_perigee_deg": 75.2232,
      "mean_anomaly_deg": 284.8859,
      "mean_motion_rev_day": 15.30206537
    }
  ]
}